ONEWEB-0584             
1 54651U 22166K   24031.45397284  .00000014  00000+0  12759-5 0  9993
2 54651  87.9208  56.6974 0001647 102.5416 257.5902 13.21825149 56884
ONEWEB-0585             
1 54652U 22166L   24031.47918947  .00000068  00000+0  13192-3 0  9990
2 54652  87.9208  56.6976 0002161  95.3328 264.8053 13.21824907 56890
ONEWEB-0586             
1 54653U 22166M   24031.49181998  .00000057  00000+0  10710-3 0  9992
2 54653  87.9203  56.7195 0001809 102.5515 257.5821 13.21824272 56894
ONEWEB-0587             
1 54654U 22166N   24031.50128742  .00000033  00000+0  47600-4 0  9996
2 54654  87.9202  56.6744 0002079  85.5221 274.6151 13.21827217 57054
ONEWEB-0589             
1 54655U 22166P   24031.48866484  .00000032  00000+0  46990-4 0  9996
2 54655  87.9204  56.7031 0001417 126.9399 233.1865 13.21824653 56915
ONEWEB-0590             
1 54656U 22166Q   24031.51233939  .00000020  00000+0  16973-4 0  9999
2 54656  87.9209  56.7006 0001766  86.7188 273.4148 13.21823214 56901
ONEWEB-0591             
1 54657U 22166R   24031.44923038  .00000017  00000+0  10508-4 0  9992
2 54657  87.9205  56.7152 0001728  97.8264 262.3066 13.21826461 56921
ONEWEB-0592             
1 54658U 22166S   24031.45239740 -.00000012  00000+0 -60701-4 0  9991
2 54658  87.9200  56.6848 0001596  98.6585 261.4730 13.21824848 56808
